BEIDOU 3 (C01)          
1 36287U 10001A   22046.89946256 -.00000280  00000-0  00000-0 0  9992
2 36287   1.8758  47.3164 0001879  19.2421 183.4730  1.00269197 44296
BEIDOU 5 (C06)          
1 36828U 10036A   22046.78082378 -.00000145  00000-0  00000-0 0  9995
2 36828  54.1920 177.3443 0027548 180.0707 177.7578  1.00281617 42350
BEIDOU 6 (C04)          
1 37210U 10057A   22046.90338738 -.00000110  00000-0  00000-0 0  9994
2 37210   0.9491  53.4790 0004634 162.2960  55.3650  1.00272604 41415
BEIDOU 7 (C07)          
1 37256U 10068A   22046.41345117 -.00000151  00000-0  00000-0 0  9996
2 37256  50.4282 291.1047 0017568 187.5076 283.3014  1.00288439 40922
BEIDOU 8 (C08)          
1 37384U 11013A   22046.46174454 -.00000137  00000-0  00000-0 0  9992
2 37384  60.1228  55.4669 0020229 195.0276 169.0687  1.00287922 39804
BEIDOU 9 (C09)          
1 37763U 11038A   22046.72669929 -.00000088  00000-0  00000-0 0  9990
2 37763  54.4764 179.8212 0088661 225.3100  96.1681  1.00259861 38778
BEIDOU 10 (C10)         
1 37948U 11073A   22046.88337904 -.00000105  00000-0  00000-0 0  9996
2 37948  50.5404 290.7338 0077092 218.6333  50.2383  1.00280412 37531
BEIDOU 11 (C05)         
1 38091U 12008A   22046.93799459  .00000059  00000-0  00000-0 0  9995
2 38091   2.0937  72.1330 0008343 284.6736 185.4551  1.00271910 36610
BEIDOU 12 (C11)         
1 38250U 12018A   22046.61042398 -.00000085  00000-0  00000-0 0  9991
2 38250  56.7237 357.5839 0023877 256.5683 343.6191  1.86234265 66817
BEIDOU 13 (C12)         
1 38251U 12018B   22046.71911791 -.00000084  00000-0  00000-0 0  9994
2 38251  56.6430 356.9124 0014562 263.0418  94.2936  1.86234284 66819
BEIDOU 15 (C14)         
1 38775U 12050B   22046.55915882  .00000003  00000-0  00000-0 0  9998
2 38775  55.3289 115.7888 0013686 319.0169 127.8314  1.86231440 64190
BEIDOU 16 (C02)         
1 38953U 12059A   22046.90697038 -.00000174  00000-0  00000-0 0  9994
2 38953   1.6873  84.6566 0013060 282.0878 189.6410  1.00270443 34046
BEIDOU 17 (C31)         
1 40549U 15019A   22046.88242666 -.00000152  00000-0  00000-0 0  9993
2 40549  52.0923 314.1667 0035334 190.3310  54.9139  1.00268260 25214
BEIDOU 18 (C57)         
1 40748U 15037A   22046.85271361 -.00000085  00000-0  00000-0 0  9990
2 40748  55.8991 355.8488 0004981 346.0953  10.4231  1.86233198 44645
BEIDOU 19 (C58)         
1 40749U 15037B   22046.65187266 -.00000086  00000-0  00000-0 0  9990
2 40749  55.9016 355.8440 0006990 316.4846  40.3974  1.86232047 44634
BEIDOU 20 (C18)         
1 40938U 15053A   22046.60347411 -.00000073  00000-0  00000-0 0  9999
2 40938  51.6868 277.2725 0043137 193.0452 348.8004  1.00274191 23483
BEIDOU IGSO-6 (C13)     
1 41434U 16021A   22045.36773176 -.00000110  00000-0  00000-0 0  9992
2 41434  57.9209  54.1072 0044461 218.8541  98.7917  1.00265757 21598
BEIDOU-2 G7 (C03)       
1 41586U 16037A   22047.16451437 -.00000352  00000-0  00000+0 0  9997
2 41586   1.7065  67.7426 0008046 358.0492 249.9757  1.00278204 20915
BEIDOU-3 M1 (C19)       
1 43001U 17069A   22046.85129627  .00000006  00000-0  00000+0 0  9990
2 43001  55.4833 115.7604 0010463 285.7140 153.1626  1.86231691 29139
BEIDOU-3 M2 (C20)       
1 43002U 17069B   22046.67489826  .00000004  00000-0  00000-0 0  9990
2 43002  55.4820 115.8056 0008433 306.1062  57.6744  1.86231516 29127
BEIDOU-3 M3 (C27)       
1 43107U 18003A   22046.68553888 -.00000086  00000-0  00000-0 0  9997
2 43107  55.3474 356.8252 0004494  36.3225 140.6015  1.86232409 27885
BEIDOU-3 M4 (C28)       
1 43108U 18003B   22046.61856286 -.00000087  00000-0  00000-0 0  9990
2 43108  55.3402 356.8172 0003693 269.7161 266.8740  1.86230824 27884
BEIDOU-3 M5 (C21)       
1 43207U 18018A   22046.26447829 -.00000001  00000-0  00000-0 0  9992
2 43207  55.4428 115.9021 0005171 327.3913  32.6430  1.86231486 27261
BEIDOU-3 M6 (C22)       
1 43208U 18018B   22046.33114147  .00000000  00000-0  00000-0 0  9993
2 43208  55.4421 115.9029 0008241 294.3423  65.6383  1.86231640 27268
BEIDOU-3 M7 (C29)       
1 43245U 18029A   22046.40374858 -.00000088  00000-0  00000-0 0  9998
2 43245  55.2668 354.6120 0001500 316.3078 302.0367  1.86232485 26410
BEIDOU-3 M8 (C30)       
1 43246U 18029B   22046.88212716 -.00000085  00000-0  10000-3 0  9996
2 43246  55.2648 354.6269 0005049 345.3360 280.1722  1.86232709 26411
BEIDOU IGSO-7 (C16)     
1 43539U 18057A   22046.93205082 -.00000142  00000-0  00000-0 0  9996
2 43539  55.0724 176.7785 0041681 221.1164 192.9192  1.00247111 13292
BEIDOU-3 M9 (C23)       
1 43581U 18062A   22045.76979321  .00000076  00000-0  00000-0 0  9998
2 43581  54.3146 236.2858 0002402 329.5018 120.9046  1.86231850 24143
BEIDOU-3 M10 (C24)      
1 43582U 18062B   22046.56696459  .00000072  00000-0  00000-0 0  9992
2 43582  54.3136 236.2484 0006921  21.5501 335.0000  1.86232184 24155
BEIDOU-3 M11 (C25)      
1 43602U 18067A   22046.52736308  .00000072  00000-0  00000-0 0  9994
2 43602  54.3950 234.8533 0008018  14.5176 357.0970  1.86231632 23651
BEIDOU-3 M12 (C26)      
1 43603U 18067B   22046.69020499  .00000071  00000-0  00000-0 0  9999
2 43603  54.3911 234.8139 0004828  11.1713  20.0259  1.86231706 23677
BEIDOU-3 M13 (C32)      
1 43622U 18072A   22046.66311010  .00000004  00000-0  00000-0 0  9991
2 43622  55.4092 115.4474 0006880 278.6893 123.9847  1.86231358 23180
BEIDOU-3 M14 (C33)      
1 43623U 18072B   22046.50712762  .00000002  00000-0  00000-0 0  9992
2 43623  55.4107 115.4449 0004454 299.3661  88.9643  1.86231372 23188
BEIDOU-3 M15 (C34)      
1 43647U 18078A   22046.88611817 -.00000085  00000-0  10000-3 0  9990
2 43647  55.1614 354.7649 0007386 353.0609 184.7612  1.86232643 22699
BEIDOU-3 M16 (C35)      
1 43648U 18078B   22046.89437823 -.00000085  00000-0  00000-0 0  9991
2 43648  55.1584 354.7711 0005188 358.9991  92.3808  1.86232179 22710
BEIDOU-3 G1 (C59)       
1 43683U 18085A   22046.85396517 -.00000277  00000-0  00000-0 0  9991
2 43683   0.8395 188.1743 0001695  12.0763  32.9927  1.00275671 12197
BEIDOU-3 M17 (C36)      
1 43706U 18093A   22046.91026065  .00000071  00000-0  00000+0 0  9991
2 43706  54.3968 236.1220 0007181 284.4900  75.4420  1.86231970 22055
BEIDOU-3 M18 (C37)      
1 43707U 18093B   22046.78332758  .00000071  00000-0  00000-0 0  9997
2 43707  54.3965 236.1179 0007011 320.5947  45.3326  1.86232135 22067
BEIDOU-3 IGSO-1 (C38)   
1 44204U 19023A   22046.51802344 -.00000174  00000-0  00000-0 0  9993
2 44204  56.3772  54.2774 0021151 205.4155 189.5313  1.00295375 10493
BEIDOU-2 G8             
1 44231U 19027A   22046.90033475 -.00000246  00000-0  00000-0 0  9991
2 44231   0.5795  68.5925 0005652 146.0380  39.8710  1.00269200 10208
BEIDOU-3 IGSO-2 (C39)   
1 44337U 19035A   22046.89890039 -.00000157  00000-0  00000-0 0  9993
2 44337  55.1137 172.8078 0022583 188.6282 225.6564  1.00290506  9836
BEIDOU-3 M23 (C45)      
1 44542U 19061A   22046.30869062  .00000074  00000-0  00000-0 0  9995
2 44542  54.6228 236.2604 0008440 354.1712   5.8348  1.86231403 16317
BEIDOU-3 M24 (C46)      
1 44543U 19061B   22046.73213825  .00000072  00000-0  00000-0 0  9991
2 44543  54.6190 236.2164 0005642 353.3176 201.7313  1.86231758 16315
BEIDOU-3 IGSO-3         
1 44709U 19073A   22045.67567498 -.00000143  00000-0  00000-0 0  9998
2 44709  57.4604 297.6585 0019801 174.5253  33.4360  1.00293081  8573
BEIDOU-3 M21            
1 44793U 19078A   22046.95292730 -.00000085  00000-0  10000-3 0  9991
2 44793  55.0105 354.7996 0007175 358.9173 177.7906  1.86232145 15188
BEIDOU-3 M22            
1 44794U 19078B   22046.55149206 -.00000087  00000-0  00000-0 0  9995
2 44794  54.9843 354.8068 0005284 353.8928 185.0997  1.86232636 15174
BEIDOU-3 M19            
1 44864U 19090A   22046.61663909  .00000003  00000-0  00000-0 0  9992
2 44864  55.3438 115.6670 0017160 265.6741 151.5219  1.86231708 14766
BEIDOU-3 M20            
1 44865U 19090B   22046.61008118  .00000003  00000-0  00000-0 0  9998
2 44865  55.3449 115.6984 0015454 280.0556 222.6311  1.86231680 14735
BEIDOU-3 G2             
1 45344U 20017A   22046.86577046 -.00000136  00000-0  00000-0 0  9998
2 45344   2.1592 346.2207 0001765  49.0777 142.2381  1.00271564  7394
BEIDOU-3 G3             
1 45807U 20040A   22046.90311400 -.00000351  00000-0  00000-0 0  9992
2 45807   1.7190 300.4370 0008377 350.3980 290.5706  1.00266443  6218
